TEVEL2-7                
1 63238U 25052AE  26068.66113296  .00019244  00000+0  69668-3 0  9999
2 63238  97.4054 324.3041 0008104 124.6830 235.5175 15.28414096 54802
STARLINK-35721          
1 67046U 25294S   26068.92927442  .00027165  00000+0  99268-3 0  9993
2 67046  42.9958  36.9030 0000683 147.3179 212.7715 15.27591650 14834
